H1 CPF  1  HTS 2022 11 24 12  8281 larets           NONE
H2  0304206 5557    27944 2022 11 24  0  0  0 2022 11 29  0  0  0   180 1 1  0 0 0
H5  0.0560 
H9 
10 0 59909  46440.00000  0    6608320.223    2458520.078     296328.773
10 0 59909  46620.00000  0    6638389.090    2166271.985   -1039375.487
10 0 59909  46800.00000  0    6417721.896    1797531.414   -2336917.878
10 0 59909  46980.00000  0    5953017.540    1372351.022   -3548788.847
10 0 59909  47160.00000  0    5260430.731     912503.854   -4630814.602
10 0 59909  47340.00000  0    4364917.092     440421.724   -5543764.977
10 0 59909  47520.00000  0    3299241.483     -21851.702   -6254730.370
10 0 59909  47700.00000  0    2102709.181    -453644.563   -6738235.899
10 0 59909  47880.00000  0     819679.229    -836538.763   -6977068.749
10 0 59909  48060.00000  0    -502077.560   -1155119.075   -6962815.511
10 0 59909  48240.00000  0   -1813125.496   -1397564.776   -6696108.452
10 0 59909  48420.00000  0   -3064163.961   -1556071.299   -6186586.927
10 0 59909  48600.00000  0   -4207831.356   -1627091.001   -5452575.255
10 0 59909  48780.00000  0   -5200469.796   -1611389.858   -4520486.972
10 0 59909  48960.00000  0   -6003797.808   -1513916.151   -3423948.840
10 0 59909  49140.00000  0   -6586424.922   -1343483.730   -2202657.178
10 0 59909  49320.00000  0   -6925140.214   -1112278.749    -900987.584
10 0 59909  49500.00000  0   -7005906.891    -835208.285     433601.172
10 0 59909  49680.00000  0   -6824501.911    -529116.867    1752312.481
10 0 59909  49860.00000  0   -6386757.948    -211912.996    3006831.113
10 0 59909  50040.00000  0   -5708389.495      98350.437    4151137.476
10 0 59909  50220.00000  0   -4814406.338     384394.362    5143233.358
10 0 59909  50400.00000  0   -3738149.026     630580.766    5946700.142
10 0 59909  50580.00000  0   -2520001.077     823687.684    6532034.591
10 0 59909  50760.00000  0   -1205833.050     953553.855    6877721.504
10 0 59909  50940.00000  0     154755.745    1013568.379    6971007.435
10 0 59909  51120.00000  0    1510323.923    1000983.895    6808358.787
10 0 59909  51300.00000  0    2809541.582     917042.567    6395602.512
10 0 59909  51480.00000  0    4003151.114     766909.026    5747742.832
10 0 59909  51660.00000  0    5045869.969     559411.120    4888449.597
10 0 59909  51840.00000  0    5898162.305     306595.821    3849227.279
10 0 59909  52020.00000  0    6527812.459      23119.299    2668277.068
10 0 59909  52200.00000  0    6911217.361    -274501.202    1389078.795
10 0 59909  52380.00000  0    7034330.662    -568742.307      58751.358
10 0 59909  52560.00000  0    6893208.991    -841986.924   -1273744.893
10 0 59909  52740.00000  0    6494122.632   -1077447.891   -2559481.516
10 0 59909  52920.00000  0    5853228.666   -1260050.795   -3751416.045
10 0 59909  53100.00000  0    4995835.265   -1377228.749   -4806140.497
10 0 59909  53280.00000  0    3955309.366   -1419588.169   -5685450.751
10 0 59909  53460.00000  0    2771694.696   -1381419.430   -6357682.077
10 0 59909  53640.00000  0    1490113.922   -1261031.708   -6798772.625
10 0 59909  53820.00000  0     159030.447   -1060900.703   -6993040.429
10 0 59909  54000.00000  0   -1171566.800    -787631.970   -6933668.094
10 0 59909  54180.00000  0   -2451997.534    -451740.829   -6622899.033
10 0 59909  54360.00000  0   -3634693.615     -67255.557   -6071946.247
10 0 59909  54540.00000  0   -4675921.538     348843.343   -5300622.277
10 0 59909  54720.00000  0   -5537385.563     777331.973   -4336692.022
10 0 59909  54900.00000  0   -6187657.965    1197578.998   -3214950.430
10 0 59909  55080.00000  0   -6603379.721    1588481.584   -1976033.280
10 0 59909  55260.00000  0   -6770170.926    1929458.811    -664987.603
10 0 59909  55440.00000  0   -6683200.698    2201457.204     670357.173
10 0 59909  55620.00000  0   -6347371.614    2387914.915    1981155.020
10 0 59909  55800.00000  0   -5777103.892    2475637.257    3219367.286
10 0 59909  55980.00000  0   -4995724.350    2455532.938    4339566.804
10 0 59909  56160.00000  0   -4034489.292    2323168.944    5300637.894
10 0 59909  56340.00000  0   -2931298.137    2079119.729    6067298.441
10 0 59909  56520.00000  0   -1729161.008    1729095.918    6611395.106
10 0 59909  56700.00000  0    -474484.701    1283842.710    6912923.377
10 0 59909  56880.00000  0     784740.482     758813.293    6960741.811
10 0 59909  57060.00000  0    2000785.215     173630.928    6752975.766
10 0 59909  57240.00000  0    3128000.321    -448643.808    6297102.408
10 0 59909  57420.00000  0    4124552.948   -1082420.304    5609711.335
10 0 59909  57600.00000  0    4954019.532   -1700629.519    4715935.359
10 0 59909  57780.00000  0    5586772.215   -2275881.210    3648561.896
10 0 59909  57960.00000  0    6001103.797   -2781678.423    2446841.950
10 0 59909  58140.00000  0    6184028.633   -3193633.828    1155028.519
10 0 59909  58320.00000  0    6131718.764   -3490624.695    -179296.222
10 0 59909  58500.00000  0    5849548.104   -3655824.346   -1507038.614
10 0 59909  58680.00000  0    5351738.977   -3677551.302   -2779470.594
10 0 59909  58860.00000  0    4660634.214   -3549891.589   -3950070.721
10 0 59909  59040.00000  0    3805645.218   -3273068.931   -4976246.712
10 0 59909  59220.00000  0    2821938.013   -2853548.018   -5820867.641
10 0 59909  59400.00000  0    1748936.688   -2303875.628   -6453549.252
10 0 59909  59580.00000  0     628721.405   -1642280.074   -6851670.025
10 0 59909  59760.00000  0    -495619.948    -892042.655   -7001099.109
10 0 59909  59940.00000  0   -1581619.971     -80674.079   -6896626.195
10 0 59909  60120.00000  0   -2588991.874     761077.115   -6542104.785
10 0 59909  60300.00000  0   -3481080.096    1600358.143   -5950311.022
10 0 59909  60480.00000  0   -4226165.121    2403456.919   -5142526.646
10 0 59909  60660.00000  0   -4798593.329    3137126.988   -4147843.286
10 0 59909  60840.00000  0   -5179685.966    3769947.208   -3002186.388
10 0 59909  61020.00000  0   -5358389.250    4273662.309   -1747081.897
10 0 59909  61200.00000  0   -5331633.285    4624445.890    -428190.018
10 0 59909  61380.00000  0   -5104374.088    4804021.590     906349.522
10 0 59909  61560.00000  0   -4689303.487    4800579.479    2207700.188
10 0 59909  61740.00000  0   -4106232.371    4609430.225    3428158.445
10 0 59909  61920.00000  0   -3381177.359    4233364.145    4522943.340
10 0 59909  62100.00000  0   -2545203.302    3682695.282    5451869.123
10 0 59909  62280.00000  0   -1633078.808    2974988.195    6180834.333
10 0 59909  62460.00000  0    -681809.391    2134480.635    6683067.956
10 0 59909  62640.00000  0     270878.416    1191231.421    6940092.175
10 0 59909  62820.00000  0    1188039.860     180031.353    6942386.501
10 0 59909  63000.00000  0    2034951.909    -860886.538    6689737.161
10 0 59909  63180.00000  0    2780439.299   -1891297.660    6191265.799
10 0 59909  63360.00000  0    3398044.650   -2870551.639    5465131.097
10 0 59909  63540.00000  0    3867000.629   -3759199.139    4537901.859
10 0 59909  63720.00000  0    4172964.391   -4520617.079    3443612.032
10 0 59909  63900.00000  0    4308482.090   -5122563.408    2222517.265
10 0 59909  64080.00000  0    4273157.362   -5538584.825     919591.243
10 0 59909  64260.00000  0    4073510.791   -5749201.202    -417180.462
10 0 59909  64440.00000  0    3722538.483   -5742803.770   -1738631.423
10 0 59909  64620.00000  0    3238991.872   -5516219.903   -2996290.687
10 0 59909  64800.00000  0    2646420.369   -5074913.213   -4144210.758
10 0 59909  64980.00000  0    1972031.751   -4432816.966   -5140664.442
10 0 59909  65160.00000  0    1245437.913   -3611820.076   -5949635.804
10 0 59909  65340.00000  0     497357.381   -2640948.158   -6542058.903
10 0 59909  65520.00000  0    -241671.008   -1555286.969   -6896780.815
10 0 59909  65700.00000  0    -942508.964    -394692.531   -7001233.961
10 0 59909  65880.00000  0   -1578532.328     797661.010   -6851816.378
10 0 59909  66060.00000  0   -2126609.843    1976849.553   -6453983.763
10 0 59909  66240.00000  0   -2567919.067    3097843.074   -5822060.742
10 0 59909  66420.00000  0   -2888582.238    4117185.913   -4978774.991
10 0 59909  66600.00000  0   -3080104.333    4994666.671   -3954510.526
10 0 59909  66780.00000  0   -3139594.226    5694915.444   -2786281.969
10 0 59909  66960.00000  0   -3069755.044    6188860.253   -1516456.785
10 0 59909  67140.00000  0   -2878642.677    6454983.695    -191253.911
10 0 59909  67320.00000  0   -2579196.419    6480304.972    1140935.000
10 0 59909  67500.00000  0   -2188560.747    6261035.205    2431342.688
10 0 59909  67680.00000  0   -1727218.615    5802844.968    3632659.834
10 0 59909  67860.00000  0   -1217992.520    5120737.076    4700806.699
10 0 59909  68040.00000  0    -684965.525    4238536.825    5596577.209
10 0 59909  68220.00000  0    -152370.740    3188021.681    6287085.987
10 0 59909  68400.00000  0     356489.719    2007737.239    6746966.691
10 0 59909  68580.00000  0     820251.319     741551.363    6959287.073
10 0 59909  68760.00000  0    1220379.191    -562995.536    6916158.125
10 0 59909  68940.00000  0    1541911.564   -1856484.056    6619028.087
10 0 59909  69120.00000  0    1774029.288   -3089501.011    6078653.759
10 0 59909  69300.00000  0    1910430.897   -4214553.010    5314741.425
10 0 59909  69480.00000  0    1949498.379   -5187935.476    4355258.502
10 0 59909  69660.00000  0    1894251.201   -5971486.268    3235435.815
10 0 59909  69840.00000  0    1752085.362   -6534152.700    1996475.248
10 0 59909  70020.00000  0    1534306.136   -6853284.228     684007.891
10 0 59909  70200.00000  0    1255480.067   -6915591.491    -653634.332
10 0 59909  70380.00000  0     932633.181   -6717715.448   -1967269.709
10 0 59909  70560.00000  0     584340.509   -6266358.212   -3208746.023
10 0 59909  70740.00000  0     229766.158   -5577986.337   -4332747.455
99
